start=new Date('2021-10-28T00:00:00.000Z').valueOf();
sats=[{"CLASSIFICATION_TYPE":"U","DECAY_DATE":null,"MEAN_ANOMALY":"306.3132","MEAN_MOTION_DDOT":"0.0000000000000","SITE":"AFETR","TLE_LINE1":"1 48031U 21024BG  21300.66667824  .00035590  00000-0  25696-3 0  9999","APOAPSIS":"353.538","NORAD_CAT_ID":"48031","CENTER_NAME":"EARTH","COUNTRY_CODE":"US","RA_OF_ASC_NODE":"204.5277","RCS_SIZE":"LARGE","ARG_OF_PERICENTER":"302.2967","LAUNCH_DATE":"2021-03-24","REF_FRAME":"TEME","MEAN_ELEMENT_THEORY":"SGP4","TIME_SYSTEM":"UTC","EPHEMERIS_TYPE":"0","OBJECT_ID":"2021-024BG","SEMIMAJOR_AXIS":"6727.960","TLE_LINE2":"2 48031  53.0429 204.5277 0005519 302.2967 306.3132 15.73177226  3694","PERIOD":"91.535","MEAN_MOTION":"15.73177226","ELEMENT_SET_NO":"999","MEAN_MOTION_DOT":"0.00035590","OBJECT_NAME":"STARLINK-2267","ECCENTRICITY":"0.00055190","INCLINATION":"53.0429","BSTAR":"0.00025696000000","EPOCH":"2021-10-27T16:00:00.999936","OBJECT_TYPE":"PAYLOAD","PERIAPSIS":"346.112","REV_AT_EPOCH":"369","FILE":"3187107","GP_ID":"188272214"},{"EPHEMERIS_TYPE":"0","TIME_SYSTEM":"UTC","TLE_LINE2":"2 48032  53.0429 204.5237 0006336 298.4522 310.7853 15.73170296  3668","PERIOD":"91.535","OBJECT_ID":"2021-024BH","SEMIMAJOR_AXIS":"6727.980","ECCENTRICITY":"0.00063360","OBJECT_NAME":"STARLINK-2297","MEAN_MOTION":"15.73170296","ELEMENT_SET_NO":"999","MEAN_MOTION_DOT":"0.00028236","INCLINATION":"53.0429","REV_AT_EPOCH":"366","PERIAPSIS":"345.582","BSTAR":"0.00020497000000","OBJECT_TYPE":"PAYLOAD","EPOCH":"2021-10-27T16:00:00.999936","GP_ID":"188272966","FILE":"3187107","DECAY_DATE":null,"CLASSIFICATION_TYPE":"U","MEAN_ANOMALY":"310.7853","MEAN_MOTION_DDOT":"0.0000000000000","SITE":"AFETR","APOAPSIS":"354.108","TLE_LINE1":"1 48032U 21024BH  21300.66667824  .00028236  00000-0  20497-3 0  9993","NORAD_CAT_ID":"48032","CENTER_NAME":"EARTH","RCS_SIZE":"LARGE","COUNTRY_CODE":"US","RA_OF_ASC_NODE":"204.5237","ARG_OF_PERICENTER":"298.4522","MEAN_ELEMENT_THEORY":"SGP4","LAUNCH_DATE":"2021-03-24","REF_FRAME":"TEME"},{"TLE_LINE1":"1 48033U 21024BJ  21300.31732148  .00000092  00000-0  25043-4 0  9991","APOAPSIS":"548.154","CLASSIFICATION_TYPE":"U","DECAY_DATE":null,"MEAN_ANOMALY":"288.3262","MEAN_MOTION_DDOT":"0.0000000000000","SITE":"AFETR","ARG_OF_PERICENTER":"71.7877","LAUNCH_DATE":"2021-03-24","REF_FRAME":"TEME","MEAN_ELEMENT_THEORY":"SGP4","NORAD_CAT_ID":"48033","CENTER_NAME":"EARTH","RA_OF_ASC_NODE":"289.0429","COUNTRY_CODE":"US","RCS_SIZE":"LARGE","MEAN_MOTION":"15.06405310","ELEMENT_SET_NO":"999","MEAN_MOTION_DOT":"0.00000092","ECCENTRICITY":"0.00013810","OBJECT_NAME":"STARLINK-2286","INCLINATION":"53.0537","TIME_SYSTEM":"UTC","EPHEMERIS_TYPE":"0","OBJECT_ID":"2021-024BJ","SEMIMAJOR_AXIS":"6925.332","TLE_LINE2":"2 48033  53.0537 289.0429 0001381  71.7877 288.3262 15.06405310 34325","PERIOD":"95.592","FILE":"3187107","GP_ID":"188273716","BSTAR":"0.00002504300000","EPOCH":"2021-10-27T07:36:56.575872","OBJECT_TYPE":"PAYLOAD","REV_AT_EPOCH":"3432","PERIAPSIS":"546.241"},{"INCLINATION":"53.0562","MEAN_MOTION":"15.06412444","MEAN_MOTION_DOT":"0.00000987","ELEMENT_SET_NO":"999","ECCENTRICITY":"0.00015070","OBJECT_NAME":"STARLINK-2288","OBJECT_ID":"2021-024BK","SEMIMAJOR_AXIS":"6925.310","TLE_LINE2":"2 48034  53.0562 289.2963 0001507  70.1874 289.9277 15.06412444 34317","PERIOD":"95.591","EPHEMERIS_TYPE":"0","TIME_SYSTEM":"UTC","FILE":"3187107","GP_ID":"188272464","BSTAR":"0.00008513300000","OBJECT_TYPE":"PAYLOAD","EPOCH":"2021-10-27T06:13:22.536768","PERIAPSIS":"546.132","REV_AT_EPOCH":"3431","TLE_LINE1":"1 48034U 21024BK  21300.25928862  .00000987  00000-0  85133-4 0  9994","APOAPSIS":"548.219","MEAN_MOTION_DDOT":"0.0000000000000","SITE":"AFETR","DECAY_DATE":null,"CLASSIFICATION_TYPE":"U","MEAN_ANOMALY":"289.9277","LAUNCH_DATE":"2021-03-24","REF_FRAME":"TEME","MEAN_ELEMENT_THEORY":"SGP4","ARG_OF_PERICENTER":"70.1874","COUNTRY_CODE":"US","RA_OF_ASC_NODE":"289.2963","RCS_SIZE":"LARGE","NORAD_CAT_ID":"48034","CENTER_NAME":"EARTH"},{"ELEMENT_SET_NO":"999","MEAN_MOTION_DOT":"-0.00009453","MEAN_MOTION":"15.73215808","ECCENTRICITY":"0.00056090","OBJECT_NAME":"STARLINK-2287","INCLINATION":"53.0434","TIME_SYSTEM":"UTC","EPHEMERIS_TYPE":"0","SEMIMAJOR_AXIS":"6727.850","OBJECT_ID":"2021-024BL","PERIOD":"91.532","TLE_LINE2":"2 48035  53.0434 203.2849 0005609 307.9825 279.8349 15.73215808 35047","FILE":"3187359","GP_ID":"188278277","EPOCH":"2021-10-27T22:00:00.999936","OBJECT_TYPE":"PAYLOAD","BSTAR":"-0.00006283800000","PERIAPSIS":"345.941","REV_AT_EPOCH":"3504","TLE_LINE1":"1 48035U 21024BL  21300.91667824 -.00009453  00000-0 -62838-4 0  9992","APOAPSIS":"353.489","MEAN_ANOMALY":"279.8349","DECAY_DATE":null,"CLASSIFICATION_TYPE":"U","SITE":"AFETR","MEAN_MOTION_DDOT":"0.0000000000000","ARG_OF_PERICENTER":"307.9825","REF_FRAME":"TEME","LAUNCH_DATE":"2021-03-24","MEAN_ELEMENT_THEORY":"SGP4","NORAD_CAT_ID":"48035","CENTER_NAME":"EARTH","COUNTRY_CODE":"US","RA_OF_ASC_NODE":"203.2849","RCS_SIZE":"MEDIUM"},{"RA_OF_ASC_NODE":"288.9684","COUNTRY_CODE":"US","RCS_SIZE":"LARGE","NORAD_CAT_ID":"48036","CENTER_NAME":"EARTH","LAUNCH_DATE":"2021-03-24","REF_FRAME":"TEME","MEAN_ELEMENT_THEORY":"SGP4","ARG_OF_PERICENTER":"71.4228","MEAN_MOTION_DDOT":"0.0000000000000","SITE":"AFETR","DECAY_DATE":null,"CLASSIFICATION_TYPE":"U","MEAN_ANOMALY":"288.6910","TLE_LINE1":"1 48036U 21024BM  21300.33301360  .00000397  00000-0  45572-4 0  9991","APOAPSIS":"548.184","BSTAR":"0.00004557200000","OBJECT_TYPE":"PAYLOAD","EPOCH":"2021-10-27T07:59:32.375040","PERIAPSIS":"546.283","REV_AT_EPOCH":"3432","FILE":"3187107","GP_ID":"188273466","OBJECT_ID":"2021-024BM","SEMIMAJOR_AXIS":"6925.369","TLE_LINE2":"2 48036  53.0545 288.9684 0001373  71.4228 288.6910 15.06393456 34326","PERIOD":"95.593","EPHEMERIS_TYPE":"0","TIME_SYSTEM":"UTC","INCLINATION":"53.0545","MEAN_MOTION":"15.06393456","MEAN_MOTION_DOT":"0.00000397","ELEMENT_SET_NO":"999","ECCENTRICITY":"0.00013730","OBJECT_NAME":"STARLINK-2295"},{"ARG_OF_PERICENTER":"28.5578","REF_FRAME":"TEME","LAUNCH_DATE":"2021-04-07","MEAN_ELEMENT_THEORY":"SGP4","NORAD_CAT_ID":"48092","CENTER_NAME":"EARTH","RA_OF_ASC_NODE":"56.4464","COUNTRY_CODE":"US","RCS_SIZE":"LARGE","TLE_LINE1":"1 48092U 21027A   21300.11928972 -.00490736  00000-0 -13260-1 0  9994","APOAPSIS":"450.888","MEAN_ANOMALY":"331.5608","CLASSIFICATION_TYPE":"U","DECAY_DATE":null,"SITE":"AFETR","MEAN_MOTION_DDOT":"0.0000000000000","FILE":"3187107","GP_ID":"188271971","EPOCH":"2021-10-27T02:51:46.631808","OBJECT_TYPE":"PAYLOAD","BSTAR":"-0.01326000000000","REV_AT_EPOCH":"3310","PERIAPSIS":"446.316","ELEMENT_SET_NO":"999","MEAN_MOTION_DOT":"-0.00490736","MEAN_MOTION":"15.39157260","OBJECT_NAME":"STARLINK-2048","ECCENTRICITY":"0.00033490","INCLINATION":"53.0433","TIME_SYSTEM":"UTC","EPHEMERIS_TYPE":"0","SEMIMAJOR_AXIS":"6826.737","OBJECT_ID":"2021-027A","PERIOD":"93.558","TLE_LINE2":"2 48092  53.0433  56.4464 0003349  28.5578 331.5608 15.39157260 33108"},{"TLE_LINE1":"1 48093U 21027B   21300.74582608  .00000974  00000-0  84294-4 0  9993","APOAPSIS":"548.550","MEAN_ANOMALY":"279.4060","DECAY_DATE":null,"CLASSIFICATION_TYPE":"U","SITE":"AFETR","MEAN_MOTION_DDOT":"0.0000000000000","ARG_OF_PERICENTER":"80.7146","REF_FRAME":"TEME","LAUNCH_DATE":"2021-04-07","MEAN_ELEMENT_THEORY":"SGP4","CENTER_NAME":"EARTH","NORAD_CAT_ID":"48093","RA_OF_ASC_NODE":"117.1064","COUNTRY_CODE":"US","RCS_SIZE":"LARGE","ELEMENT_SET_NO":"999","MEAN_MOTION_DOT":"0.00000974","MEAN_MOTION":"15.06397193","OBJECT_NAME":"STARLINK-2404","ECCENTRICITY":"0.00019170","INCLINATION":"53.0552","TIME_SYSTEM":"UTC","EPHEMERIS_TYPE":"0","SEMIMAJOR_AXIS":"6925.357","OBJECT_ID":"2021-027B","PERIOD":"95.592","TLE_LINE2":"2 48093  53.0552 117.1064 0001917  80.7146 279.4060 15.06397193 31916","FILE":"3187311","GP_ID":"188277198","EPOCH":"2021-10-27T17:53:59.373312","OBJECT_TYPE":"PAYLOAD","BSTAR":"0.00008429400000","REV_AT_EPOCH":"3191","PERIAPSIS":"545.895"},{"NORAD_CAT_ID":"48094","CENTER_NAME":"EARTH","RA_OF_ASC_NODE":"129.3275","COUNTRY_CODE":"US","RCS_SIZE":"LARGE","ARG_OF_PERICENTER":"83.7609","REF_FRAME":"TEME","LAUNCH_DATE":"2021-04-07","MEAN_ELEMENT_THEORY":"SGP4","MEAN_ANOMALY":"276.3601","DECAY_DATE":null,"CLASSIFICATION_TYPE":"U","SITE":"AFETR","MEAN_MOTION_DDOT":"0.0000000000000","TLE_LINE1":"1 48094U 21027C   21300.25193167 -.00000532  00000-0 -16840-4 0  9992","APOAPSIS":"548.571","EPOCH":"2021-10-27T06:02:46.896288","OBJECT_TYPE":"PAYLOAD","BSTAR":"-0.00001684000000","PERIAPSIS":"545.874","REV_AT_EPOCH":"3210","FILE":"3187107","GP_ID":"188272973","TIME_SYSTEM":"UTC","EPHEMERIS_TYPE":"0","SEMIMAJOR_AXIS":"6925.358","OBJECT_ID":"2021-027C","PERIOD":"95.592","TLE_LINE2":"2 48094  53.0558 129.3275 0001947  83.7609 276.3601 15.06397004 32102","MEAN_MOTION_DOT":"-0.00000532","ELEMENT_SET_NO":"999","MEAN_MOTION":"15.06397004","ECCENTRICITY":"0.00019470","OBJECT_NAME":"STARLINK-2412","INCLINATION":"53.0558"},{"ELEMENT_SET_NO":"999","MEAN_MOTION_DOT":"0.00000776","MEAN_MOTION":"15.06403366","OBJECT_NAME":"STARLINK-2414","ECCENTRICITY":"0.00018400","INCLINATION":"53.0563","TIME_SYSTEM":"UTC","EPHEMERIS_TYPE":"0","SEMIMAJOR_AXIS":"6925.338","OBJECT_ID":"2021-027D","PERIOD":"95.592","TLE_LINE2":"2 48095  53.0563 129.3003 0001840  86.0128 274.1071 15.06403366 32119","FILE":"3187107","GP_ID":"188273723","OBJECT_TYPE":"PAYLOAD","EPOCH":"2021-10-27T06:13:23.896704","BSTAR":"0.00007096800000","PERIAPSIS":"545.929","REV_AT_EPOCH":"3211","TLE_LINE1":"1 48095U 21027D   21300.25930436  .00000776  00000-0  70968-4 0  9990","APOAPSIS":"548.478","MEAN_ANOMALY":"274.1071","CLASSIFICATION_TYPE":"U","DECAY_DATE":null,"SITE":"AFETR","MEAN_MOTION_DDOT":"0.0000000000000","ARG_OF_PERICENTER":"86.0128","REF_FRAME":"TEME","LAUNCH_DATE":"2021-04-07","MEAN_ELEMENT_THEORY":"SGP4","NORAD_CAT_ID":"48095","CENTER_NAME":"EARTH","COUNTRY_CODE":"US","RA_OF_ASC_NODE":"129.3003","RCS_SIZE":"LARGE"}];
